$$SOE
2459580.500000000, A.D. 2022-Jan-01 00:00:00.0000, -1.645302148905446E+08, -4.864896836021309E+08, -9.958339136994982E+07,
2459587.500000000, A.D. 2022-Jan-08 00:00:00.0000, -1.565497979737908E+08, -4.903115731485156E+08, -1.012204079529172E+08,
2459594.500000000, A.D. 2022-Jan-15 00:00:00.0000, -1.485167427261194E+08, -4.939685330486993E+08, -1.028233746752525E+08,
2459601.500000000, A.D. 2022-Jan-22 00:00:00.0000, -1.404341461365723E+08, -4.974606616638308E+08, -1.043920289880929E+08,
2459608.500000000, A.D. 2022-Jan-29 00:00:00.0000, -1.323050667782737E+08, -5.007880899167556E+08, -1.059261199886089E+08,
2459615.500000000, A.D. 2022-Feb-05 00:00:00.0000, -1.241325277269635E+08, -5.039509805428010E+08, -1.074254078714288E+08,
2459622.500000000, A.D. 2022-Feb-12 00:00:00.0000, -1.159195173179246E+08, -5.069495284754611E+08, -1.088896636796365E+08,
2459629.500000000, A.D. 2022-Feb-19 00:00:00.0000, -1.076689890643121E+08, -5.097839599963791E+08, -1.103186690402108E+08,
2459636.500000000, A.D. 2022-Feb-26 00:00:00.0000, -9.938386204663894E+07, -5.124545313705207E+08, -1.117122158225827E+08,
2459643.500000000, A.D. 2022-Mar-05 00:00:00.0000, -9.106702161251353E+07, -5.149615275811326E+08, -1.130701057852051E+08,
2459650.500000000, A.D. 2022-Mar-12 00:00:00.0000, -8.272132016319090E+07, -5.173052612279159E+08, -1.143921502357658E+08,
2459657.500000000, A.D. 2022-Mar-19 00:00:00.0000, -7.434957795429182E+07, -5.194860715582091E+08, -1.156781697092594E+08,
2459664.500000000, A.D. 2022-Mar-26 00:00:00.0000, -6.595458388687599E+07, -5.215043236351978E+08, -1.169279936665302E+08,
2459671.500000000, A.D. 2022-Apr-02 00:00:00.0000, -5.753909622001614E+07, -5.233604076972158E+08, -1.181414602241477E+08,
2459678.500000000, A.D. 2022-Apr-09 00:00:00.0000, -4.910584293213809E+07, -5.250547387014194E+08, -1.193184159401280E+08,
2459685.500000000, A.D. 2022-Apr-16 00:00:00.0000, -4.065752137349188E+07, -5.265877553955624E+08, -1.204587156345221E+08,
2459692.500000000, A.D. 2022-Apr-23 00:00:00.0000, -3.219679847801467E+07, -5.279599178309405E+08, -1.215622220393120E+08,
2459699.500000000, A.D. 2022-Apr-30 00:00:00.0000, -2.372631340354439E+07, -5.291717055587430E+08, -1.226288052888280E+08,
2459706.500000000, A.D. 2022-May-07 00:00:00.0000, -1.524867953579336E+07, -5.302236184811733E+08, -1.236583426924866E+08,
2459713.500000000, A.D. 2022-May-14 00:00:00.0000, -6.766484465175142E+06, -5.311161773184322E+08, -1.246507186691470E+08,
2459720.500000000, A.D. 2022-May-21 00:00:00.0000, 1.717710033118652E+06, -5.318499229324953E+08, -1.256058245950093E+08,
2459727.500000000, A.D. 2022-May-28 00:00:00.0000, 1.020136753713762E+07, -5.324254154657575E+08, -1.265235585995548E+08,
2459734.500000000, A.D. 2022-Jun-04 00:00:00.0000, 1.868197631131301E+07, -5.328432336062471E+08, -1.274038253603531E+08,
2459741.500000000, A.D. 2022-Jun-11 00:00:00.0000, 2.715704857931685E+07, -5.331039739756704E+08, -1.282465359094537E+08,
2459748.500000000, A.D. 2022-Jun-18 00:00:00.0000, 3.562411977547698E+07, -5.332082506251588E+08, -1.290516074532961E+08,
2459755.500000000, A.D. 2022-Jun-25 00:00:00.0000, 4.408074780460490E+07, -5.331566946700717E+08, -1.298189632110146E+08,
2459762.500000000, A.D. 2022-Jul-02 00:00:00.0000, 5.252451244482589E+07, -5.329499541280433E+08, -1.305485322883444E+08,
2459769.500000000, A.D. 2022-Jul-09 00:00:00.0000, 6.095301528417500E+07, -5.325886937820882E+08, -1.312402496080837E+08,
2459776.500000000, A.D. 2022-Jul-16 00:00:00.0000, 6.936388013607541E+07, -5.320735939849647E+08, -1.318940558031947E+08,
2459783.500000000, A.D. 2022-Jul-23 00:00:00.0000, 7.775475173541746E+07, -5.314053483258865E+08, -1.325098968640537E+08,
2459790.500000000, A.D. 2022-Jul-30 00:00:00.0000, 8.612329279965396E+07, -5.305846635119852E+08, -1.330877238210611E+08,
2459797.500000000, A.D. 2022-Aug-06 00:00:00.0000, 9.446718305438042E+07, -5.296122608154721E+08, -1.336274927394131E+08,
2459804.500000000, A.D. 2022-Aug-13 00:00:00.0000, 1.027841194006130E+08, -5.284888763319090E+08, -1.341291647253224E+08,
2459811.500000000, A.D. 2022-Aug-20 00:00:00.0000, 1.110718156543980E+08, -5.272152605527205E+08, -1.345927058406576E+08,
2459818.500000000, A.D. 2022-Aug-27 00:00:00.0000, 1.193280019267750E+08, -5.257921779779664E+08, -1.350180869913011E+08,
2459825.500000000, A.D. 2022-Sep-03 00:00:00.0000, 1.275504238918941E+08, -5.242204068792501E+08, -1.354052838206529E+08,
2459832.500000000, A.D. 2022-Sep-10 00:00:00.0000, 1.357368420332806E+08, -5.225007391880941E+08, -1.357542766142520E+08,
2459839.500000000, A.D. 2022-Sep-17 00:00:00.0000, 1.438850308976683E+08, -5.206339805106948E+08, -1.360650502180688E+08,
2459846.500000000, A.D. 2022-Sep-24 00:00:00.0000, 1.519927784170318E+08, -5.186209503192086E+08, -1.363375939800254E+08,
2459853.500000000, A.D. 2022-Oct-01 00:00:00.0000, 1.600578855391096E+08, -5.164624823414348E+08, -1.365719017386375E+08,
2459860.500000000, A.D. 2022-Oct-08 00:00:00.0000, 1.680781665739352E+08, -5.141594246267498E+08, -1.367679718537074E+08,
2459867.500000000, A.D. 2022-Oct-15 00:00:00.0000, 1.760514493244540E+08, -5.117126380891168E+08, -1.369258070958473E+08,
2459874.500000000, A.D. 2022-Oct-22 00:00:00.0000, 1.839755728192977E+08, -5.091229952105381E+08, -1.370454143323942E+08,
2459881.500000000, A.D. 2022-Oct-29 00:00:00.0000, 1.918483851455631E+08, -5.063913814974265E+08, -1.371268044507583E+08,
2459888.500000000, A.D. 2022-Nov-05 00:00:00.0000, 1.996677434814438E+08, -5.035186969483913E+08, -1.371699924880431E+08,
2459895.500000000, A.D. 2022-Nov-12 00:00:00.0000, 2.074315143642347E+08, -5.005058562664560E+08, -1.371749976835664E+08,
2459902.500000000, A.D. 2022-Nov-19 00:00:00.0000, 2.151375734743897E+08, -4.973537887699806E+08, -1.371418434665585E+08,
2459909.500000000, A.D. 2022-Nov-26 00:00:00.0000, 2.227838051977842E+08, -4.940634383996627E+08, -1.370705574357373E+08,
2459916.500000000, A.D. 2022-Dec-03 00:00:00.0000, 2.303681021319948E+08, -4.906357638331277E+08, -1.369611713469929E+08,
2459923.500000000, A.D. 2022-Dec-10 00:00:00.0000, 2.378883645817252E+08, -4.870717386882028E+08, -1.368137211117117E+08,
2459930.500000000, A.D. 2022-Dec-17 00:00:00.0000, 2.453425000676782E+08, -4.833723518393005E+08, -1.366282468097394E+08,
2459937.500000000, A.D. 2022-Dec-24 00:00:00.0000, 2.527284229581330E+08, -4.795386079119020E+08, -1.364047927320056E+08,
2459944.500000000, A.D. 2022-Dec-31 00:00:00.0000, 2.600440545812629E+08, -4.755715278469300E+08, -1.361434074765784E+08,
2459951.500000000, A.D. 2023-Jan-07 00:00:00.0000, 2.672873239416710E+08, -4.714721485725364E+08, -1.358441440308015E+08,
2459958.500000000, A.D. 2023-Jan-14 00:00:00.0000, 2.744561670746815E+08, -4.672415212869151E+08, -1.355070596186839E+08,
2459965.500000000, A.D. 2023-Jan-21 00:00:00.0000, 2.815485243937859E+08, -4.628807115249081E+08, -1.351322155137305E+08,
2459972.500000000, A.D. 2023-Jan-28 00:00:00.0000, 2.885623396995880E+08, -4.583908012038229E+08, -1.347196771696765E+08,
2459979.500000000, A.D. 2023-Feb-04 00:00:00.0000, 2.954955606422539E+08, -4.537728896212615E+08, -1.342695144027927E+08,
2459986.500000000, A.D. 2023-Feb-11 00:00:00.0000, 3.023461388424913E+08, -4.490280935992244E+08, -1.337818014770455E+08,
2459993.500000000, A.D. 2023-Feb-18 00:00:00.0000, 3.091120296078705E+08, -4.441575475979320E+08, -1.332566171535296E+08,
2460000.500000000, A.D. 2023-Feb-25 00:00:00.0000, 3.157911915074371E+08, -4.391624039611394E+08, -1.326940447413380E+08,
2460007.500000000, A.D. 2023-Mar-04 00:00:00.0000, 3.223815859070638E+08, -4.340438332740164E+08, -1.320941721575278E+08,
2460014.500000000, A.D. 2023-Mar-11 00:00:00.0000, 3.288811764944461E+08, -4.288030248328919E+08, -1.314570919985339E+08,
2460021.500000000, A.D. 2023-Mar-18 00:00:00.0000, 3.352879288411431E+08, -4.234411872759980E+08, -1.307829016311220E+08,
2460028.500000000, A.D. 2023-Mar-25 00:00:00.0000, 3.415998102055556E+08, -4.179595494220064E+08, -1.300717033251462E+08,
2460035.500000000, A.D. 2023-Apr-01 00:00:00.0000, 3.478147900023230E+08, -4.123593609228355E+08, -1.293236044348294E+08,
2460042.500000000, A.D. 2023-Apr-08 00:00:00.0000, 3.539308403237869E+08, -4.066418915062783E+08, -1.285387174721305E+08,
2460049.500000000, A.D. 2023-Apr-15 00:00:00.0000, 3.599459341769462E+08, -4.008084299153005E+08, -1.277171599482658E+08,
2460056.500000000, A.D. 2023-Apr-22 00:00:00.0000, 3.658580432450400E+08, -3.948602855958132E+08, -1.268590543985068E+08,
2460063.500000000, A.D. 2023-Apr-29 00:00:00.0000, 3.716651379093524E+08, -3.887987908796439E+08, -1.259645286569402E+08,
2460070.500000000, A.D. 2023-May-06 00:00:00.0000, 3.773651877720568E+08, -3.826253018818018E+08, -1.250337160744372E+08,
2460077.500000000, A.D. 2023-May-13 00:00:00.0000, 3.829561617042109E+08, -3.763411990060768E+08, -1.240667556636146E+08,
2460084.500000000, A.D. 2023-May-20 00:00:00.0000, 3.884360276538219E+08, -3.699478875504641E+08, -1.230637922327705E+08,
2460091.500000000, A.D. 2023-May-27 00:00:00.0000, 3.938027524082667E+08, -3.634467984422351E+08, -1.220249765293678E+08,
2460098.500000000, A.D. 2023-Jun-03 00:00:00.0000, 3.990543013694673E+08, -3.568393890770755E+08, -1.209504653966868E+08,
2460105.500000000, A.D. 2023-Jun-10 00:00:00.0000, 4.041886383663635E+08, -3.501271442764548E+08, -1.198404219474020E+08,
2460112.500000000, A.D. 2023-Jun-17 00:00:00.0000, 4.092037255944427E+08, -3.433115774235418E+08, -1.186950157675577E+08,
2460119.500000000, A.D. 2023-Jun-24 00:00:00.0000, 4.140975240032915E+08, -3.363942317220451E+08, -1.175144231761316E+08,
2460126.500000000, A.D. 2023-Jul-01 00:00:00.0000, 4.188679943869414E+08, -3.293766807501051E+08, -1.162988274962840E+08,
2460133.500000000, A.D. 2023-Jul-08 00:00:00.0000, 4.235130975049465E+08, -3.222605274882091E+08, -1.150484191182809E+08,
2460140.500000000, A.D. 2023-Jul-15 00:00:00.0000, 4.280307919585856E+08, -3.150474046521187E+08, -1.137633954687287E+08,
$$EOE